QIANFAN-89              
1 63175U 25046S   25291.03194595  .00000173  00000+0  25004-3 0  9998
2 63175  88.9791 325.8052 0014424 288.3881  71.5701 13.50970876 39889
QIANFAN-90              
1 63176U 25046T   25290.98661446  .00000137  00000+0  19382-3 0  9998
2 63176  88.9791 325.7821 0011345 286.7891  73.2016 13.50972411 39891
